NORAD_CAT_ID,OBJECT_NAME,OBJECT_TYPE,EPOCH,MEAN_MOTION,ECCENTRICITY,INCLINATION,RA_OF_ASC_NODE,ARG_OF_PERICENTER,MEAN_ANOMALY,BSTAR,MEAN_MOTION_DOT,MEAN_MOTION_DDOT,TLE_LINE0,TLE_LINE1,TLE_LINE2,SEMIMAJOR_AXIS,PERIOD,APOGEE,PERIGEE,DECAYED
52118.0,STARLINK-3743,PAYLOAD,2024-04-27 15:45:09,15.08833288,0.0001463,53.2175,256.3995,103.4248,256.6907,-0.00015379,-2.734e-05,0.0,0 STARLINK-3743,1 52118U 22029AG  24118.65635783 -.00002734  00000-0 -15379-3 0  9997,2 52118  53.2175 256.3995 0001463 103.4248 256.6907 15.08833288117973,6917.901,95.438,540.778,538.754,0.0
52118.0,STARLINK-3743,PAYLOAD,2024-04-28 12:25:10,15.0883625,0.0001609,53.2179,252.5324,105.1426,254.9744,-7.7699e-05,-1.524e-05,0.0,0 STARLINK-3743,1 52118U 22029AG  24119.51748035 -.00001524  00000-0 -77699-4 0  9998,2 52118  53.2179 252.5324 0001609 105.1426 254.9744 15.08836250118108,6917.892,95.438,540.87,538.644,0.0
52118.0,STARLINK-3743,PAYLOAD,2024-04-28 14:00:33,15.0883137,0.00016,53.2175,252.2357,107.4562,252.6605,-2.8105e-05,-7.35e-06,0.0,0 STARLINK-3743,1 52118U 22029AG  24119.58372128 -.00000735  00000-0 -28105-4 0  9992,2 52118  53.2175 252.2357 0001600 107.4562 252.6605 15.08831370118114,6917.907,95.438,540.879,538.665,0.0
52118.0,STARLINK-3743,PAYLOAD,2024-04-28 15:35:56,15.08832428,0.0001145,53.2164,251.9373,81.7156,278.3965,-1.1594e-05,-4.72e-06,0.0,0 STARLINK-3743,1 52118U 22029AG  24119.64996257 -.00000472  00000-0 -11594-4 0  9996,2 52118  53.2164 251.9373 0001145  81.7156 278.3965 15.08832428118123,6917.904,95.438,540.561,538.976,0.0
52118.0,STARLINK-3743,PAYLOAD,2024-04-29 13:51:21,15.08837233,0.0001225,53.2158,247.7739,87.7277,272.3855,0.00029483,4.407e-05,0.0,0 STARLINK-3743,1 52118U 22029AG  24120.57732669  .00004407  00000-0  29483-3 0  9990,2 52118  53.2158 247.7739 0001225  87.7277 272.3855 15.08837233118260,6917.889,95.438,540.601,538.906,0.0
52118.0,STARLINK-3743,PAYLOAD,2024-04-29 15:26:44,15.08838955,0.000117,53.2161,247.4775,84.8498,275.2628,0.00033895,5.11e-05,0.0,0 STARLINK-3743,1 52118U 22029AG  24120.64356635  .00005110  00000-0  33895-3 0  9997,2 52118  53.2161 247.4775 0001170  84.8498 275.2628 15.08838955118276,6917.884,95.438,540.558,538.939,0.0
52118.0,STARLINK-3743,PAYLOAD,2024-04-30 13:42:08,15.08841187,0.0001161,53.216,243.3149,78.0222,282.0901,0.00017346,2.474e-05,0.0,0 STARLINK-3743,1 52118U 22029AG  24121.57092599  .00002474  00000-0  17346-3 0  9999,2 52118  53.2160 243.3149 0001161  78.0222 282.0901 15.08841187118412,6917.877,95.437,540.545,538.939,0.0
52118.0,STARLINK-3743,PAYLOAD,2024-04-30 15:17:31,15.08841602,0.0001149,53.216,243.0174,77.4306,282.6815,0.00017045,2.426e-05,0.0,0 STARLINK-3743,1 52118U 22029AG  24121.63716579  .00002426  00000-0  17045-3 0  9990,2 52118  53.2160 243.0174 0001149  77.4306 282.6815 15.08841602118422,6917.875,95.437,540.535,538.946,0.0
52118.0,STARLINK-3743,PAYLOAD,2024-05-01 00:49:49,15.08850737,0.0001173,53.2162,241.2334,78.1096,282.0028,0.00026892,3.996e-05,0.0,0 STARLINK-3743,1 52118U 22029AG  24122.03460116  .00003996  00000-0  26892-3 0  9991,2 52118  53.2162 241.2334 0001173  78.1096 282.0028 15.08850737118488,6917.848,95.437,540.524,538.901,0.0
52118.0,STARLINK-3743,PAYLOAD,2024-05-02 13:23:41,15.08830247,0.0001594,53.2164,234.3941,77.0066,283.1104,-0.00023546,-4.032e-05,0.0,0 STARLINK-3743,1 52118U 22029AG  24123.55812051 -.00004032  00000-0 -23546-3 0  9995,2 52118  53.2164 234.3941 0001594  77.0066 283.1104 15.08830247118716,6917.91,95.438,540.878,538.672,0.0
52118.0,STARLINK-3743,PAYLOAD,2024-05-02 14:59:04,15.08831263,0.0001474,53.2153,234.0975,79.661,280.4548,-0.00017029,-2.996e-05,0.0,0 STARLINK-3743,1 52118U 22029AG  24123.62436083 -.00002996  00000-0 -17029-3 0  9996,2 52118  53.2153 234.0975 0001474  79.6610 280.4548 15.08831263118720,6917.907,95.438,540.792,538.752,0.0
52118.0,STARLINK-3743,PAYLOAD,2024-05-03 00:31:23,15.0884508,0.0001492,53.2161,232.3136,75.4582,284.6575,0.00020011,2.899e-05,0.0,0 STARLINK-3743,1 52118U 22029AG  24124.02179677  .00002899  00000-0  20011-3 0  9999,2 52118  53.2161 232.3136 0001492  75.4582 284.6575 15.08845080118785,6917.865,95.437,540.762,538.698,0.0
52118.0,STARLINK-3743,PAYLOAD,2024-05-03 14:49:51,15.08854809,0.0001484,53.2148,229.6369,77.3462,282.7696,0.00072476,0.0001127,0.0,0 STARLINK-3743,1 52118U 22029AG  24124.61795721  .00011270  00000-0  72476-3 0  9993,2 52118  53.2148 229.6369 0001484  77.3462 282.7696 15.08854809118878,6917.835,95.437,540.727,538.674,0.0
52118.0,STARLINK-3743,PAYLOAD,2024-05-04 13:05:15,15.08823143,0.000145,53.2155,225.4719,93.2301,266.8857,-0.0004254,-7.049e-05,0.0,0 STARLINK-3743,1 52118U 22029AG  24125.54532043 -.00007049  00000-0 -42540-3 0  9992,2 52118  53.2155 225.4719 0001450  93.2301 266.8857 15.08823143119017,6917.932,95.439,540.8,538.794,0.0
52118.0,STARLINK-3743,PAYLOAD,2024-05-05 12:56:03,15.08854097,0.0001332,53.2161,221.0128,88.6102,271.5043,0.0014773,0.0002331,0.0,0 STARLINK-3743,1 52118U 22029AG  24126.53892797  .00023310  00000-0  14773-2 0  9990,2 52118  53.2161 221.0128 0001332  88.6102 271.5043 15.08854097119164,6917.837,95.437,540.624,538.781,0.0
52118.0,STARLINK-3743,PAYLOAD,2024-05-06 11:11:26,15.08859374,0.0001222,53.2163,216.8496,87.6029,272.5103,0.00083167,0.0001298,0.0,0 STARLINK-3743,1 52118U 22029AG  24127.46628128  .00012980  00000-0  83167-3 0  9993,2 52118  53.2163 216.8496 0001222  87.6029 272.5103 15.08859374119308,6917.821,95.436,540.532,538.841,0.0
52118.0,STARLINK-3743,PAYLOAD,2024-05-06 22:19:08,15.08871304,0.0001134,53.2164,214.7687,71.2684,288.8431,0.0018437,0.00029202,0.0,0 STARLINK-3743,1 52118U 22029AG  24127.92995839  .00029202  00000-0  18437-2 0  9992,2 52118  53.2164 214.7687 0001134  71.2684 288.8431 15.08871304119374,6917.785,95.436,540.434,538.865,0.0
52118.0,STARLINK-3743,PAYLOAD,2024-05-07 12:37:37,15.08832677,0.000138,53.2175,212.0933,91.6711,268.444,-0.00016522,-2.916e-05,0.0,0 STARLINK-3743,1 52118U 22029AG  24128.52612429 -.00002916  00000-0 -16522-3 0  9999,2 52118  53.2175 212.0933 0001380  91.6711 268.4440 15.08832677119465,6917.903,95.438,540.722,538.813,0.0
52118.0,STARLINK-3743,PAYLOAD,2024-05-08 14:03:47,15.0884075,0.0001295,53.2161,207.3352,82.9839,277.13,0.00028597,4.266e-05,0.0,0 STARLINK-3743,1 52118U 22029AG  24129.58596873  .00004266  00000-0  28597-3 0  9993,2 52118  53.2161 207.3352 0001295  82.9839 277.1300 15.08840750119622,6917.878,95.438,540.639,538.847,0.0
52118.0,STARLINK-3743,PAYLOAD,2024-05-08 22:00:43,15.08845282,0.0001318,53.216,205.8487,85.141,274.9733,0.00044622,6.822e-05,0.0,0 STARLINK-3743,1 52118U 22029AG  24129.91716844  .00006822  00000-0  44622-3 0  9999,2 52118  53.2160 205.8487 0001318  85.1410 274.9733 15.08845282119674,6917.864,95.437,540.641,538.817,0.0
52118.0,STARLINK-3743,PAYLOAD,2024-05-09 12:19:11,15.08845114,0.0001414,53.2163,203.1733,87.0892,273.0262,0.00029628,4.431e-05,0.0,0 STARLINK-3743,1 52118U 22029AG  24130.51332891  .00004431  00000-0  29628-3 0  9996,2 52118  53.2163 203.1733 0001414  87.0892 273.0262 15.08845114119765,6917.865,95.437,540.708,538.752,0.0
52118.0,STARLINK-3743,PAYLOAD,2024-05-10 04:13:03,15.08846938,0.0001416,53.2153,200.1997,79.3979,280.7173,0.00028114,4.19e-05,0.0,0 STARLINK-3743,1 52118U 22029AG  24131.17572959  .00004190  00000-0  28114-3 0  9991,2 52118  53.2153 200.1997 0001416  79.3979 280.7173 15.08846938119867,6917.859,95.437,540.704,538.745,0.0
52118.0,STARLINK-3743,PAYLOAD,2024-05-10 12:09:58,15.08840856,0.0001178,53.2151,198.7107,97.906,262.2066,0.00012135,1.644e-05,0.0,0 STARLINK-3743,1 52118U 22029AG  24131.50693106  .00001644  00000-0  12135-3 0  9993,2 52118  53.2151 198.7107 0001178  97.9060 262.2066 15.08840856119917,6917.878,95.438,540.558,538.928,0.0
52118.0,STARLINK-3743,PAYLOAD,2024-05-11 04:03:48,15.0886774,0.0001303,53.2157,195.7385,79.277,280.8369,0.0005647,8.717e-05,0.0,0 STARLINK-3743,1 52118U 22029AG  24132.16931619  .00008717  00000-0  56470-3 0  9998,2 52118  53.2157 195.7385 0001303  79.2770 280.8369 15.08867740120015,6917.796,95.436,540.562,538.759,0.0
52118.0,STARLINK-3743,PAYLOAD,2024-05-11 10:25:21,15.08866509,0.0001742,53.2147,194.5507,102.0049,258.1138,0.00046781,7.17e-05,0.0,0 STARLINK-3743,1 52118U 22029AG  24132.43427487  .00007170  00000-0  46781-3 0  9997,2 52118  53.2147 194.5507 0001742 102.0049 258.1138 15.08866509120056,6917.799,95.436,540.869,538.459,0.0
52118.0,STARLINK-3743,PAYLOAD,2024-05-12 10:16:10,15.08746102,0.0001648,53.2142,190.0869,104.1093,256.0082,-0.0032455,-0.0005144,0.0,0 STARLINK-3743,1 52118U 22029AG  24133.42789450 -.00051440  00000-0 -32455-2 0  9991,2 52118  53.2142 190.0869 0001648 104.1093 256.0082 15.08746102120208,6918.167,95.443,541.173,538.892,0.0
52118.0,STARLINK-3743,PAYLOAD,2024-05-13 10:06:59,15.08827435,0.0001388,53.2148,185.6265,83.9194,276.1956,0.0018001,0.00028467,0.0,0 STARLINK-3743,1 52118U 22029AG  24134.42152253  .00028467  00000-0  18001-2 0  9999,2 52118  53.2148 185.6265 0001388  83.9194 276.1956 15.08827435120359,6917.919,95.438,540.744,538.824,0.0
52118.0,STARLINK-3743,PAYLOAD,2024-05-14 09:57:45,15.08856499,0.0001487,53.2152,181.1671,82.0904,278.0257,0.00097122,0.0001521,0.0,0 STARLINK-3743,1 52118U 22029AG  24135.41511167  .00015210  00000-0  97122-3 0  9996,2 52118  53.2152 181.1671 0001487  82.0904 278.0257 15.08856499120509,6917.83,95.437,540.724,538.666,0.0
52118.0,STARLINK-3743,PAYLOAD,2024-05-14 19:30:03,15.08880922,0.000137,53.2155,179.3824,78.8249,281.2897,0.00075895,0.00011825,0.0,0 STARLINK-3743,1 52118U 22029AG  24135.81253572  .00011825  00000-0  75895-3 0  9994,2 52118  53.2155 179.3824 0001370  78.8249 281.2897 15.08880922120567,6917.755,95.435,540.568,538.673,0.0
52118.0,STARLINK-3743,PAYLOAD,2024-05-15 03:26:58,15.08875856,0.0002879,53.2152,177.8943,73.4978,286.633,0.0005777,8.927e-05,0.0,0 STARLINK-3743,1 52118U 22029AG  24136.14373668  .00008927  00000-0  57770-3 0  9991,2 52118  53.2152 177.8943 0002879  73.4978 286.6330 15.08875856120611,6917.771,95.435,541.627,537.644,0.0
